STARLINK-6249           
1 56541U 23065AQ  23256.72538788  .00000495  00000+0  51661-4 0  9993
2 56541  43.0000 116.9495 0000872 259.6973 100.3771 15.02543792 19897
STARLINK-6266           
1 56542U 23065AR  23257.06331910  .00000859  00000+0  78642-4 0  9992
2 56542  43.0018 115.1880 0001144 283.1667  76.9048 15.02551591 19162
STARLINK-6228           
1 56543U 23065AS  23256.91815246 -.00004530  00000+0 -32029-3 0  9995
2 56543  42.9997 115.8156 0001084 261.8228  98.2491 15.02562648 19927
STARLINK-6226           
1 56544U 23065AT  23256.06283395  .00001061  00000+0  93596-4 0  9997
2 56544  43.0028 120.5789 0001291 269.9719  90.0975 15.02540618 19799
STARLINK-6086           
1 56545U 23065AU  23257.04667210  .00000826  00000+0  76223-4 0  9995
2 56545  43.0037 115.0586 0001222 271.2627  88.8076 15.02546271 19161
STARLINK-6187           
1 56546U 23065AV  23256.98796921  .00001804  00000+0  14856-3 0  9990
2 56546  43.0018 115.4802 0001489 270.3960  89.6711 15.02546285 19150
STARLINK-6291           
1 56547U 23065AW  23257.04001983  .00000925  00000+0  83541-4 0  9997
2 56547  43.0033 115.0095 0001262 281.1915  78.8786 15.02543854 19169
STARLINK-6244           
1 56548U 23065AX  23256.91704889  .00002829  00000+0  22432-3 0  9994
2 56548  43.0008 115.8063 0000916 270.1518  89.9220 15.02551155 19920
STARLINK-6263           
1 56549U 23065AY  23257.10094180  .00007453  00000+0  56589-3 0  9991
2 56549  43.0020 114.6062 0001237 270.6186  89.4515 15.02557731 19179
STARLINK-6255           
1 56550U 23065AZ  23257.04334702  .00002884  00000+0  22844-3 0  9993
2 56550  43.0024 115.0340 0001243 265.9953  94.0748 15.02547211 19166
STARLINK-6199           
1 56551U 23065BA  23256.89707375  .00003318  00000+0  26055-3 0  9997
2 56551  43.0031 115.6549 0001300 273.3628  86.7066 15.02543521 19923
STARLINK-5802           
1 56552U 23065BB  23257.10316243  .00002677  00000+0  21305-3 0  9993
2 56552  43.0022 114.6232 0001207 276.5509  83.5196 15.02552278 19176
STARLINK-6074           
1 56553U 23065BC  23257.02669752  .00001370  00000+0  11641-3 0  9992
2 56553  43.0017 114.9069 0000599 281.9393  78.1382 15.02544882 19164
STARLINK-6295           
1 56554U 23065BD  23257.03113382  .00001069  00000+0  94195-4 0  9998
2 56554  43.0030 114.9421 0001086 274.9428  85.1290 15.02548858 19168
STARLINK-6252           
1 56555U 23065BE  23256.88708345  .00001814  00000+0  14932-3 0  9998
2 56555  43.0028 115.5798 0001221 273.3285  86.7417 15.02543481 19924
STARLINK-5302           
1 56556U 23065BF  23256.89041142  .00005385  00000+0  41323-3 0  9996
2 56556  43.0025 115.6053 0001253 271.2117  88.8582 15.02554273 19920
STARLINK-6265           
1 56557U 23065BG  23256.95022919 -.00000214  00000+0 -80351-6 0  9990
2 56557  43.0015 115.1917 0001162 244.3203 115.7520 15.02549638 19156
STARLINK-6286           
1 56558U 23065BH  23257.01448404  .00001276  00000+0  10950-3 0  9992
2 56558  43.0032 114.8138 0001230 277.0559  83.0143 15.02551112 19169
STARLINK-30122          
1 56688U 23067A   23257.06777729  .00019949  00000+0  14867-2 0  9994
2 56688  43.0017 166.7449 0001002 273.3825  86.6903 15.02560541 18279
STARLINK-30129          
1 56689U 23067B   23257.05782082  .00112730  00000+0  82789-2 0  9992
2 56689  42.9998 166.6864 0000680 276.9759  83.1005 15.02296884 18273
STARLINK-30124          
1 56690U 23067C   23257.25389486  .00024150  00000+0  17952-2 0  9995
2 56690  43.0017 165.5799 0001455 264.8111  95.2565 15.02566146 18303
STARLINK-30087          
1 56691U 23067D   23257.08219409  .00040588  00000+0  25164-2 0  9991
2 56691  43.0011 166.0369 0002950 258.3407 101.7107 15.09092041 18281
STARLINK-30036          
1 56692U 23067E   23257.11713452  .00000753  00000+0  67510-4 0  9996
2 56692  43.0030 166.2886 0001381 262.7326  97.3360 15.04496297 18282
STARLINK-30067          
1 56693U 23067F   23257.50001157 -.00002462  00000+0 -16729-3 0  9998
2 56693  43.0010 164.0889 0001776 288.0490  36.8650 15.02525125 18349
STARLINK-30126          
1 56694U 23067G   23257.11320823  .00010324  00000+0  73852-3 0  9994
2 56694  43.0012 166.2598 0001396 263.4443  96.6241 15.04512001 18280
STARLINK-30121          
1 56695U 23067H   23257.50001157  .01106035  00000+0  77662-1 0  9991
2 56695  43.0008 164.0350 0000835 252.3783  91.0026 15.01872950 18345
STARLINK-30130          
1 56697U 23067K   23257.00002315 -.00140656  00000+0 -10589-1 0  9998
2 56697  43.0012 166.4152 0001014 258.2269  41.4170 15.02601369 18278
STARLINK-30068          
1 56698U 23067L   23257.08677372  .00032058  00000+0  17220-2 0  9992
2 56698  43.0015 153.9204 0001353 280.4380  79.6314 15.14353580 18420
STARLINK-30127          
1 56699U 23067M   23257.10173690  .00029604  00000+0  20864-2 0  9991
2 56699  43.0001 166.1765 0004129 237.5364 122.5080 15.04479812 18281
STARLINK-30053          
1 56700U 23067N   23256.17445727  .00001408  00000+0  11347-3 0  9992
2 56700  43.0000 171.2529 0001287 231.3088 128.7640 15.04497186 18997
STARLINK-30125          
1 56701U 23067P   23257.09855655  .00017042  00000+0  12086-2 0  9991
2 56701  43.0030 166.1485 0001368 255.6312 104.4379 15.04509410 18280
STARLINK-30117          
1 56702U 23067Q   23257.06444571  .00017251  00000+0  12880-2 0  9994
2 56702  43.0012 166.6914 0000773 291.2116  68.8643 15.02564211 18274
STARLINK-30132          
1 56703U 23067R   23257.22405206 -.00287937  00000+0 -21389-1 0  9990
2 56703  43.0018 165.3709 0002469  22.6023 337.4928 15.03902480 18306
STARLINK-30066          
1 56704U 23067S   23257.00451379  .00001181  00000+0  10244-3 0  9992
2 56704  43.0012 166.2991 0001454 242.6481 117.4213 15.02549642 18274
STARLINK-30080          
1 56705U 23067T   23257.12154941  .00002055  00000+0  12235-3 0  9994
2 56705  43.0005 155.0861 0001429 273.9044  86.1639 15.14336638 18415
STARLINK-30079          
1 56706U 23067U   23257.16667824 -.00028344  00000+0 -20924-2 0  9992
2 56706  43.0014 165.5971 0001901 271.1597 174.9570 15.02521200 18308
STARLINK-30070          
1 56707U 23067V   23257.50001157  .00002793  00000+0  22188-3 0  9995
2 56707  43.0017 163.8279 0000871 208.7248 224.4334 15.02514857 18341
STARLINK-30071          
1 56708U 23067W   23256.94137009  .00009245  00000+0  69816-3 0  9997
2 56708  43.0000 166.6890 0001580 271.4946  88.5716 15.02558573 18261
STARLINK-30085          
1 56709U 23067X   23257.16667824 -.00023250  00000+0 -17125-2 0  9995
2 56709  43.0014 165.5530 0001412 269.5082 194.6513 15.02519997 18305
STARLINK-6197           
1 56767U 23078A   23256.93981761 -.00000127  00000+0 -28642-5 0  9991
2 56767  70.0004 133.2744 0002974 267.8603  92.2216 14.98331485 16210
STARLINK-6198           
1 56768U 23078B   23257.39327456  .00023100  00000+0  19320-3 0  9993
2 56768  69.9983 114.9510 0003544 271.9429  88.1361 15.69942315 16963
STARLINK-5978           
1 56769U 23078C   23257.06498949  .00000492  00000+0  49008-4 0  9990
2 56769  69.9998 132.9064 0002674 269.0543  91.0309 14.98332941 16494
STARLINK-6342           
1 56770U 23078D   23257.06915861  .00000863  00000+0  80136-4 0  9998
2 56770  70.0002 132.9209 0003067 269.4167  90.6641 14.98335123 16498
STARLINK-6339           
1 56771U 23078E   23257.01087128 -.00002625  00000+0 -20074-4 0  9995
2 56771  69.9995 116.0254 0003369 270.3980  89.6830 15.69912361 16907
STARLINK-6275           
1 56772U 23078F   23256.92729606 -.00000246  00000+0 -12825-4 0  9991
2 56772  69.9997 133.2284 0003095 270.3200  89.7604 14.98331558 16213
STARLINK-6296           
1 56773U 23078G   23257.01078563 -.00002023  00000+0 -15074-4 0  9996
2 56773  69.9969 116.0252 0003723 272.2158  87.8612 15.69895487 16907
STARLINK-6190           
1 56774U 23078H   23256.92312106 -.00000108  00000+0 -12188-5 0  9996
2 56774  69.9996 133.2127 0003191 269.6859  90.3935 14.98331007 16212
STARLINK-6292           
1 56775U 23078J   23257.07396030 -.00002681  00000+0 -20545-4 0  9995
2 56775  69.9988 115.8446 0003473 264.7064  95.3736 15.69906611 16910
STARLINK-6274           
1 56776U 23078K   23256.75581383 -.00003253  00000+0 -25330-4 0  9990
2 56776  69.9967 116.7427 0003020 262.9208  97.1645 15.69889694 16601
STARLINK-5582           
1 56777U 23078L   23257.16667824 -.00035488  00000+0 -60367-3 0  9995
2 56777  69.9979 115.9634 0003327 268.9494 285.4279 15.51241994 16914
STARLINK-6304           
1 56778U 23078M   23257.01066445 -.00018573  00000+0 -15394-3 0  9998
2 56778  69.9973 116.0255 0003990 258.2336 101.8412 15.69777169 16909
STARLINK-6231           
1 56779U 23078N   23256.75454142 -.00008729  00000+0 -71020-4 0  9995
2 56779  69.9995 116.7376 0003570 272.3260  87.7526 15.69881927 16605
STARLINK-5963           
1 56780U 23078P   23257.00276251 -.00000695  00000+0 -90365-5 0  9997
2 56780  69.9972 116.8266 0002864 266.1736  93.9122 15.51218865 16882
STARLINK-5989           
1 56781U 23078Q   23257.16667824 -.00032213  00000+0 -54755-3 0  9997
2 56781  69.9978 115.9580 0003448 269.7618 288.8349 15.51237670 16921
STARLINK-6352           
1 56782U 23078R   23257.01046031 -.00000935  00000+0 -60160-5 0  9998
2 56782  69.9966 116.0237 0003351 265.7928  94.2885 15.69904121 16906
STARLINK-6357           
1 56783U 23078S   23257.07385380 -.00000724  00000+0 -42528-5 0  9992
2 56783  69.9963 115.8430 0003969 263.6357  96.4387 15.69914372 16915
STARLINK-6354           
1 56784U 23078T   23257.07406461  .00000455  00000+0  55613-5 0  9995
2 56784  69.9964 115.8440 0003773 270.3901  89.6863 15.69914112 16916
STARLINK-5931           
1 56785U 23078U   23257.16667824 -.00025966  00000+0 -44049-3 0  9993
2 56785  69.9978 115.9599 0003595 270.4655 286.4455 15.51235667 16913
STARLINK-6341           
1 56786U 23078V   23256.75517016 -.00005930  00000+0 -47637-4 0  9991
2 56786  69.9982 116.7388 0003907 281.4152  78.6605 15.69892387 16606
STARLINK-6326           
